HIERARCHY
ROOT Hips
{
	OFFSET	0.00	0.00	0.00
	CHANNELS 6 Xposition Yposition Zposition Zrotation Xrotation Yrotation
	JOINT Spine
	{
		OFFSET	 0.000000	 0.059888	 0.006666
		CHANNELS 3 Zrotation Xrotation Yrotation
		JOINT Chest
		{
			OFFSET	 0.000000	 0.125681	-0.015911
			CHANNELS 3 Zrotation Xrotation Yrotation
			JOINT UpperChest
			{
				OFFSET	 0.000000	 0.122768	-0.001652
				CHANNELS 3 Zrotation Xrotation Yrotation
				JOINT Neck
				{
					OFFSET	 0.000000	 0.155865	 0.008735
					CHANNELS 3 Zrotation Xrotation Yrotation
					JOINT Head
					{
						OFFSET	 0.000000	 0.095969	-0.000410
						CHANNELS 3 Zrotation Xrotation Yrotation
						JOINT LeftEye
						{
							OFFSET	 0.015267	 0.059218	 0.021494
							CHANNELS 3 Zrotation Xrotation Yrotation
							End Site
							{
								OFFSET	 0.015267	 0.059218	 0.021494
							}
						}
						JOINT RightEye
						{
							OFFSET	-0.015267	 0.059218	 0.021494
							CHANNELS 3 Zrotation Xrotation Yrotation
							End Site
							{
								OFFSET	-0.015267	 0.059218	 0.021494
							}
						}
					}
				}
				JOINT LeftShoulder
				{
					OFFSET	 0.025383	 0.124268	 0.007699
					CHANNELS 3 Zrotation Xrotation Yrotation
					JOINT LeftUpperArm
					{
						OFFSET	 0.136062	 0.000000	 0.000000
						CHANNELS 3 Zrotation Xrotation Yrotation
						JOINT LeftLowerArm
						{
							OFFSET	 0.225446	 0.000000	 0.000000
							CHANNELS 3 Zrotation Xrotation Yrotation
							JOINT LeftHand
							{
								OFFSET	 0.256325	 0.000003	 0.000015
								CHANNELS 3 Zrotation Xrotation Yrotation
								JOINT LeftIndexProximal
								{
									OFFSET	 0.074229	 0.008101	 0.022282
									CHANNELS 3 Zrotation Xrotation Yrotation
									JOINT LeftIndexIntermediate
									{
										OFFSET	 0.037712	 0.000000	-0.000001
										CHANNELS 3 Zrotation Xrotation Yrotation
										JOINT LeftIndexDistal
										{
											OFFSET	 0.023218	 0.000022	 0.000021
											CHANNELS 3 Zrotation Xrotation Yrotation
											End Site
											{
												OFFSET	 0.023218	 0.000022	 0.000021
											}
										}
									}
								}
								JOINT LeftLittleProximal
								{
									OFFSET	 0.069261	 0.008101	-0.033073
									CHANNELS 3 Zrotation Xrotation Yrotation
									JOINT LeftLittleIntermediate
									{
										OFFSET	 0.035643	 0.000000	 0.000000
										CHANNELS 3 Zrotation Xrotation Yrotation
										JOINT LeftLittleDistal
										{
											OFFSET	 0.020542	 0.000000	 0.000000
											CHANNELS 3 Zrotation Xrotation Yrotation
											End Site
											{
												OFFSET	 0.020542	 0.000000	 0.000000
											}
										}
									}
								}
								JOINT LeftMiddleProximal
								{
									OFFSET	 0.075240	 0.008101	 0.002320
									CHANNELS 3 Zrotation Xrotation Yrotation
									JOINT LeftMiddleIntermediate
									{
										OFFSET	 0.042007	 0.000000	 0.000000
										CHANNELS 3 Zrotation Xrotation Yrotation
										JOINT LeftMiddleDistal
										{
											OFFSET	 0.025915	 0.000000	 0.000000
											CHANNELS 3 Zrotation Xrotation Yrotation
											End Site
											{
												OFFSET	 0.025915	 0.000000	 0.000000
											}
										}
									}
								}
								JOINT LeftRingProximal
								{
									OFFSET	 0.074383	 0.008101	-0.015403
									CHANNELS 3 Zrotation Xrotation Yrotation
									JOINT LeftRingIntermediate
									{
										OFFSET	 0.038967	 0.000000	 0.000000
										CHANNELS 3 Zrotation Xrotation Yrotation
										JOINT LeftRingDistal
										{
											OFFSET	 0.022488	 0.000000	 0.000000
											CHANNELS 3 Zrotation Xrotation Yrotation
											End Site
											{
												OFFSET	 0.022488	 0.000000	 0.000000
											}
										}
									}
								}
								JOINT LeftThumbProximal
								{
									OFFSET	 0.003995	-0.010985	 0.018096
									CHANNELS 3 Zrotation Xrotation Yrotation
									JOINT LeftThumbIntermediate
									{
										OFFSET	 0.052819	-0.000008	-0.000074
										CHANNELS 3 Zrotation Xrotation Yrotation
										JOINT LeftThumbDistal
										{
											OFFSET	 0.032489	 0.000042	-0.000035
											CHANNELS 3 Zrotation Xrotation Yrotation
											End Site
											{
												OFFSET	 0.032489	 0.000042	-0.000035
											}
										}
									}
								}
							}
						}
					}
				}
				JOINT RightShoulder
				{
					OFFSET	-0.025383	 0.124268	 0.007699
					CHANNELS 3 Zrotation Xrotation Yrotation
					JOINT RightUpperArm
					{
						OFFSET	-0.136062	 0.000000	 0.000000
						CHANNELS 3 Zrotation Xrotation Yrotation
						JOINT RightLowerArm
						{
							OFFSET	-0.225446	 0.000000	 0.000000
							CHANNELS 3 Zrotation Xrotation Yrotation
							JOINT RightHand
							{
								OFFSET	-0.256325	 0.000003	 0.000015
								CHANNELS 3 Zrotation Xrotation Yrotation
								JOINT RightIndexProximal
								{
									OFFSET	-0.074229	 0.008101	 0.022282
									CHANNELS 3 Zrotation Xrotation Yrotation
									JOINT RightIndexIntermediate
									{
										OFFSET	-0.037712	 0.000000	-0.000001
										CHANNELS 3 Zrotation Xrotation Yrotation
										JOINT RightIndexDistal
										{
											OFFSET	-0.023218	 0.000022	 0.000021
											CHANNELS 3 Zrotation Xrotation Yrotation
											End Site
											{
												OFFSET	-0.023218	 0.000022	 0.000021
											}
										}
									}
								}
								JOINT RightLittleProximal
								{
									OFFSET	-0.069261	 0.008101	-0.033073
									CHANNELS 3 Zrotation Xrotation Yrotation
									JOINT RightLittleIntermediate
									{
										OFFSET	-0.035643	 0.000000	 0.000000
										CHANNELS 3 Zrotation Xrotation Yrotation
										JOINT RightLittleDistal
										{
											OFFSET	-0.020542	 0.000000	 0.000000
											CHANNELS 3 Zrotation Xrotation Yrotation
											End Site
											{
												OFFSET	-0.020542	 0.000000	 0.000000
											}
										}
									}
								}
								JOINT RightMiddleProximal
								{
									OFFSET	-0.075240	 0.008101	 0.002320
									CHANNELS 3 Zrotation Xrotation Yrotation
									JOINT RightMiddleIntermediate
									{
										OFFSET	-0.042007	 0.000000	 0.000000
										CHANNELS 3 Zrotation Xrotation Yrotation
										JOINT RightMiddleDistal
										{
											OFFSET	-0.025915	 0.000000	 0.000000
											CHANNELS 3 Zrotation Xrotation Yrotation
											End Site
											{
												OFFSET	-0.025915	 0.000000	 0.000000
											}
										}
									}
								}
								JOINT RightRingProximal
								{
									OFFSET	-0.074383	 0.008101	-0.015403
									CHANNELS 3 Zrotation Xrotation Yrotation
									JOINT RightRingIntermediate
									{
										OFFSET	-0.038967	 0.000000	 0.000000
										CHANNELS 3 Zrotation Xrotation Yrotation
										JOINT RightRingDistal
										{
											OFFSET	-0.022488	 0.000000	 0.000000
											CHANNELS 3 Zrotation Xrotation Yrotation
											End Site
											{
												OFFSET	-0.022488	 0.000000	 0.000000
											}
										}
									}
								}
								JOINT RightThumbProximal
								{
									OFFSET	-0.003995	-0.010985	 0.018096
									CHANNELS 3 Zrotation Xrotation Yrotation
									JOINT RightThumbIntermediate
									{
										OFFSET	-0.052819	-0.000008	-0.000074
										CHANNELS 3 Zrotation Xrotation Yrotation
										JOINT RightThumbDistal
										{
											OFFSET	-0.032489	 0.000042	-0.000035
											CHANNELS 3 Zrotation Xrotation Yrotation
											End Site
											{
												OFFSET	-0.032489	 0.000042	-0.000035
											}
										}
									}
								}
							}
						}
					}
				}
			}
		}
	}
	JOINT LeftUpperLeg
	{
		OFFSET	 0.087143	-0.045243	 0.001548
		CHANNELS 3 Zrotation Xrotation Yrotation
		JOINT LeftLowerLeg
		{
			OFFSET	 0.000000	-0.394432	-0.000001
			CHANNELS 3 Zrotation Xrotation Yrotation
			JOINT LeftFoot
			{
				OFFSET	 0.000000	-0.466446	 0.003058
				CHANNELS 3 Zrotation Xrotation Yrotation
				JOINT LeftToes
				{
					OFFSET	 0.000000	-0.079218	 0.140851
					CHANNELS 3 Zrotation Xrotation Yrotation
					End Site
					{
						OFFSET	 0.000000	-0.079218	 0.140851
					}
				}
			}
		}
	}
	JOINT RightUpperLeg
	{
		OFFSET	-0.087143	-0.045243	 0.001548
		CHANNELS 3 Zrotation Xrotation Yrotation
		JOINT RightLowerLeg
		{
			OFFSET	 0.000000	-0.394432	-0.000001
			CHANNELS 3 Zrotation Xrotation Yrotation
			JOINT RightFoot
			{
				OFFSET	 0.000000	-0.466446	 0.003058
				CHANNELS 3 Zrotation Xrotation Yrotation
				JOINT RightToes
				{
					OFFSET	 0.000000	-0.079218	 0.140851
					CHANNELS 3 Zrotation Xrotation Yrotation
					End Site
					{
						OFFSET	 0.000000	-0.079218	 0.140851
					}
				}
			}
		}
	}
}
MOTION
Frames:    38
Frame Time: 0.03333334
 0.000000	 1.032722	 0.003576	 0.000000	 7.212389	 0.000000	 0.000000	 1.466440	 0.000000	 0.000000	-15.658460	-0.000004	-0.000029	-12.397530	-0.000083	 0.000000	 26.225450	 0.000000	-0.000002	-6.229266	 0.000024	-1.701261	 3.587029	 23.098790	 1.701262	 3.587039	-20.847600	-8.577779	 19.176040	 2.836478	 8.098792	-0.000024	 0.000003	-0.000506	 0.000167	-0.000011	 0.000248	 0.000739	 0.000010	-0.012967	 0.667629	 1.112118	-1.679194	 1.282879	 0.674526	-0.334984	 1.286472	-0.711007	 0.000005	-0.000042	 0.000001	 0.000003	 0.000000	 0.000000	 0.890204	-0.008562	-1.101182	 0.000000	-0.000008	-0.000006	 0.000003	 0.000039	-0.000013	 0.000003	 0.000039	-0.000013	 0.000000	 0.000014	 0.000004	 0.000003	 0.000000	 0.000000	-0.712572	-0.008159	 1.310742	 86.198970	 49.487950	-89.646780	-2.573035	-0.739925	 0.463022	 4.590282	-0.705078	-0.717109	 8.577779	 19.176040	-2.836478	-8.098794	-0.000030	 0.000011	 0.000512	 0.000170	 0.000014	-0.000250	 0.000737	-0.000011	 0.012969	 0.667629	-1.112118	 1.679193	 1.282880	-0.674527	 0.334982	 1.286472	 0.711007	-0.000005	-0.000043	-0.000001	-0.000003	 0.000000	 0.000000	-0.890204	-0.008562	 1.101182	 0.000000	-0.000008	 0.000006	-0.000003	 0.000039	 0.000013	-0.000003	 0.000039	 0.000013	 0.000000	 0.000014	-0.000004	-0.000003	 0.000000	 0.000000	 0.712572	-0.008159	-1.310742	-86.198980	 49.487950	 89.646800	 2.573038	-0.739921	-0.463021	-4.590279	-0.705076	 0.717109	-0.000001	-6.013633	-0.000022	 0.000001	 2.614234	-0.000018	 0.000000	-3.498952	 0.000000	 0.000000	 0.248285	 0.000000	 0.000008	-6.013632	 0.000023	-0.000009	 2.614230	-0.000003	 0.000000	-3.498953	 0.000000	 0.000000	 0.248285	 0.000000
 0.000000	 1.032722	 0.003576	 0.000000	 7.212389	 0.000000	 0.000000	 1.466439	 0.000000	 0.000000	-15.658460	-0.000004	-0.000029	-12.397530	-0.000083	 0.000000	 26.225450	 0.000000	-0.000002	-6.229264	 0.000024	-1.701261	 3.587029	 23.098790	 1.701262	 3.587039	-20.847600	-8.577779	 19.176040	 2.836478	 8.098791	-0.000020	 0.000003	-0.000507	 0.000164	-0.000011	 0.000251	 0.000742	 0.000010	-0.012967	 0.667629	 1.112118	-1.679194	 1.282879	 0.674526	-0.334984	 1.286472	-0.711007	 0.000005	-0.000042	 0.000001	 0.000003	 0.000000	 0.000000	 0.890204	-0.008562	-1.101182	 0.000000	-0.000008	-0.000006	 0.000003	 0.000039	-0.000013	 0.000003	 0.000039	-0.000013	 0.000000	 0.000014	 0.000004	 0.000003	 0.000000	 0.000000	-0.712572	-0.008159	 1.310742	 86.198970	 49.487950	-89.646780	-2.573035	-0.739925	 0.463022	 4.590282	-0.705078	-0.717109	 8.577779	 19.176040	-2.836478	-8.098794	-0.000026	 0.000011	 0.000515	 0.000167	 0.000014	-0.000253	 0.000742	-0.000010	 0.012969	 0.667629	-1.112118	 1.679193	 1.282880	-0.674527	 0.334982	 1.286472	 0.711007	-0.000005	-0.000043	-0.000001	-0.000003	 0.000000	 0.000000	-0.890204	-0.008562	 1.101182	 0.000000	-0.000008	 0.000006	-0.000003	 0.000039	 0.000013	-0.000003	 0.000039	 0.000013	 0.000000	 0.000014	-0.000004	-0.000003	 0.000000	 0.000000	 0.712572	-0.008159	-1.310742	-86.198980	 49.487950	 89.646800	 2.573038	-0.739921	-0.463021	-4.590279	-0.705076	 0.717109	-0.000001	-6.013633	-0.000022	 0.000001	 2.614234	-0.000018	 0.000000	-3.498952	 0.000000	 0.000000	 0.248285	 0.000000	 0.000008	-6.013632	 0.000023	-0.000009	 2.614230	-0.000003	 0.000000	-3.498953	 0.000000	 0.000000	 0.248285	 0.000000
 0.000000	 1.032722	 0.003576	 0.000000	 7.212389	 0.000000	 0.000000	 1.466438	 0.000000	 0.000000	-15.658460	-0.000004	-0.000029	-12.397530	-0.000083	 0.000000	 26.225450	 0.000000	-0.000002	-6.229263	 0.000024	-1.701261	 3.587029	 23.098790	 1.701262	 3.587039	-20.847600	-8.577779	 19.176040	 2.836478	 8.098791	-0.000019	 0.000003	-0.000508	 0.000162	-0.000011	 0.000253	 0.000745	 0.000010	-0.012967	 0.667629	 1.112118	-1.679194	 1.282879	 0.674526	-0.334984	 1.286472	-0.711007	 0.000005	-0.000042	 0.000001	 0.000003	 0.000000	 0.000000	 0.890204	-0.008562	-1.101182	 0.000000	-0.000008	-0.000006	 0.000003	 0.000039	-0.000013	 0.000003	 0.000039	-0.000013	 0.000000	 0.000014	 0.000004	 0.000003	 0.000000	 0.000000	-0.712572	-0.008159	 1.310742	 86.198970	 49.487950	-89.646780	-2.573035	-0.739925	 0.463022	 4.590282	-0.705078	-0.717109	 8.577779	 19.176040	-2.836478	-8.098795	-0.000025	 0.000011	 0.000517	 0.000165	 0.000014	-0.000254	 0.000745	-0.000010	 0.012969	 0.667629	-1.112118	 1.679193	 1.282880	-0.674527	 0.334982	 1.286472	 0.711007	-0.000005	-0.000043	-0.000001	-0.000003	 0.000000	 0.000000	-0.890204	-0.008562	 1.101182	 0.000000	-0.000008	 0.000006	-0.000003	 0.000039	 0.000013	-0.000003	 0.000039	 0.000013	 0.000000	 0.000014	-0.000004	-0.000003	 0.000000	 0.000000	 0.712572	-0.008159	-1.310742	-86.198980	 49.487950	 89.646800	 2.573038	-0.739921	-0.463021	-4.590279	-0.705076	 0.717109	-0.000001	-6.013633	-0.000022	 0.000001	 2.614234	-0.000018	 0.000000	-3.498952	 0.000000	 0.000000	 0.248285	 0.000000	 0.000008	-6.013632	 0.000023	-0.000009	 2.614229	-0.000003	 0.000000	-3.498953	 0.000000	 0.000000	 0.248285	 0.000000
 0.000000	 1.032722	 0.003576	 0.000000	 7.212389	 0.000000	 0.000000	 1.466437	 0.000000	 0.000000	-15.658460	-0.000004	-0.000029	-12.397530	-0.000083	 0.000000	 26.225450	 0.000000	-0.000002	-6.229260	 0.000024	-1.701261	 3.587029	 23.098790	 1.701262	 3.587039	-20.847600	-8.577779	 19.176040	 2.836478	 8.098791	-0.000013	 0.000003	-0.000509	 0.000157	-0.000011	 0.000254	 0.000749	 0.000010	-0.012967	 0.667629	 1.112118	-1.679194	 1.282879	 0.674526	-0.334984	 1.286472	-0.711007	 0.000005	-0.000042	 0.000001	 0.000003	 0.000000	 0.000000	 0.890204	-0.008562	-1.101182	 0.000000	-0.000008	-0.000006	 0.000003	 0.000039	-0.000013	 0.000003	 0.000039	-0.000013	 0.000000	 0.000014	 0.000004	 0.000003	 0.000000	 0.000000	-0.712572	-0.008159	 1.310742	 86.198970	 49.487950	-89.646780	-2.573035	-0.739925	 0.463022	 4.590282	-0.705078	-0.717109	 8.577779	 19.176040	-2.836478	-8.098796	-0.000023	 0.000011	 0.000518	 0.000163	 0.000014	-0.000256	 0.000749	-0.000010	 0.012969	 0.667629	-1.112118	 1.679193	 1.282880	-0.674527	 0.334982	 1.286472	 0.711007	-0.000005	-0.000043	-0.000001	-0.000003	 0.000000	 0.000000	-0.890204	-0.008562	 1.101182	 0.000000	-0.000008	 0.000006	-0.000003	 0.000039	 0.000013	-0.000003	 0.000039	 0.000013	 0.000000	 0.000014	-0.000004	-0.000003	 0.000000	 0.000000	 0.712572	-0.008159	-1.310742	-86.198980	 49.487950	 89.646800	 2.573038	-0.739921	-0.463021	-4.590279	-0.705076	 0.717109	-0.000001	-6.013633	-0.000022	 0.000001	 2.614234	-0.000018	 0.000000	-3.498952	 0.000000	 0.000000	 0.248285	 0.000000	 0.000008	-6.013632	 0.000023	-0.000009	 2.614228	-0.000003	 0.000000	-3.498953	 0.000000	 0.000000	 0.248285	 0.000000
 0.000000	 1.032722	 0.003576	 0.000000	 7.212389	 0.000000	 0.000000	 1.466437	 0.000000	 0.000000	-15.658460	-0.000004	-0.000029	-12.397530	-0.000083	 0.000000	 26.225450	 0.000000	-0.000002	-6.229261	 0.000024	-1.701261	 3.587029	 23.098790	 1.701262	 3.587039	-20.847600	-8.577779	 19.176040	 2.836478	 8.098791	-0.000008	 0.000003	-0.000510	 0.000152	-0.000011	 0.000256	 0.000752	 0.000011	-0.012967	 0.667629	 1.112118	-1.679194	 1.282879	 0.674526	-0.334984	 1.286472	-0.711007	 0.000005	-0.000042	 0.000001	 0.000003	 0.000000	 0.000000	 0.890204	-0.008562	-1.101182	 0.000000	-0.000008	-0.000006	 0.000003	 0.000039	-0.000013	 0.000003	 0.000039	-0.000013	 0.000000	 0.000014	 0.000004	 0.000003	 0.000000	 0.000000	-0.712572	-0.008159	 1.310742	 86.198970	 49.487950	-89.646780	-2.573035	-0.739925	 0.463022	 4.590282	-0.705078	-0.717109	 8.577779	 19.176040	-2.836478	-8.098796	-0.000021	 0.000011	 0.000518	 0.000162	 0.000014	-0.000257	 0.000750	-0.000010	 0.012969	 0.667629	-1.112118	 1.679193	 1.282880	-0.674527	 0.334982	 1.286472	 0.711007	-0.000005	-0.000043	-0.000001	-0.000003	 0.000000	 0.000000	-0.890204	-0.008562	 1.101182	 0.000000	-0.000008	 0.000006	-0.000003	 0.000039	 0.000013	-0.000003	 0.000039	 0.000013	 0.000000	 0.000014	-0.000004	-0.000003	 0.000000	 0.000000	 0.712572	-0.008159	-1.310742	-86.198980	 49.487950	 89.646800	 2.573038	-0.739921	-0.463021	-4.590279	-0.705076	 0.717109	-0.000001	-6.013633	-0.000022	 0.000001	 2.614234	-0.000018	 0.000000	-3.498952	 0.000000	 0.000000	 0.248285	 0.000000	 0.000008	-6.013632	 0.000023	-0.000009	 2.614227	-0.000003	 0.000000	-3.498953	 0.000000	 0.000000	 0.248285	 0.000000
 0.000000	 1.032722	 0.003576	 0.000000	 7.212389	 0.000000	 0.000000	 1.466436	 0.000000	 0.000000	-15.658460	-0.000004	-0.000029	-12.397530	-0.000083	 0.000000	 26.225450	 0.000000	-0.000002	-6.229259	 0.000024	-1.701261	 3.587029	 23.098790	 1.701262	 3.587039	-20.847600	-8.577779	 19.176040	 2.836478	 8.098790	-0.000005	 0.000003	-0.000511	 0.000148	-0.000010	 0.000258	 0.000756	 0.000011	-0.012967	 0.667629	 1.112118	-1.679194	 1.282879	 0.674526	-0.334984	 1.286472	-0.711007	 0.000005	-0.000042	 0.000001	 0.000003	 0.000000	 0.000000	 0.890204	-0.008562	-1.101182	 0.000000	-0.000008	-0.000006	 0.000003	 0.000039	-0.000013	 0.000003	 0.000039	-0.000013	 0.000000	 0.000014	 0.000004	 0.000003	 0.000000	 0.000000	-0.712572	-0.008159	 1.310742	 86.198970	 49.487950	-89.646780	-2.573035	-0.739925	 0.463022	 4.590282	-0.705078	-0.717109	 8.577779	 19.176040	-2.836478	-8.098795	-0.000021	 0.000011	 0.000517	 0.000160	 0.000013	-0.000258	 0.000756	-0.000010	 0.012969	 0.667629	-1.112118	 1.679193	 1.282880	-0.674527	 0.334982	 1.286472	 0.711007	-0.000005	-0.000043	-0.000001	-0.000003	 0.000000	 0.000000	-0.890204	-0.008562	 1.101182	 0.000000	-0.000008	 0.000006	-0.000003	 0.000039	 0.000013	-0.000003	 0.000039	 0.000013	 0.000000	 0.000014	-0.000004	-0.000003	 0.000000	 0.000000	 0.712572	-0.008159	-1.310742	-86.198980	 49.487950	 89.646800	 2.573038	-0.739921	-0.463021	-4.590279	-0.705076	 0.717109	-0.000001	-6.013633	-0.000022	 0.000001	 2.614234	-0.000018	 0.000000	-3.498952	 0.000000	 0.000000	 0.248285	 0.000000	 0.000008	-6.013632	 0.000023	-0.000009	 2.614226	-0.000003	 0.000000	-3.498953	 0.000000	 0.000000	 0.248285	 0.000000
 0.000000	 1.032722	 0.003576	 0.000000	 7.212389	 0.000000	 0.000000	 1.466435	 0.000000	 0.000000	-15.658460	-0.000004	-0.000029	-12.397530	-0.000083	 0.000000	 26.225450	 0.000000	-0.000002	-6.229261	 0.000024	-1.701261	 3.587029	 23.098790	 1.701262	 3.587039	-20.847600	-8.577779	 19.176040	 2.836478	 8.098791	-0.000001	 0.000003	-0.000511	 0.000146	-0.000011	 0.000258	 0.000754	 0.000011	-0.012967	 0.667629	 1.112118	-1.679194	 1.282879	 0.674526	-0.334984	 1.286472	-0.711007	 0.000005	-0.000042	 0.000001	 0.000003	 0.000000	 0.000000	 0.890204	-0.008562	-1.101182	 0.000000	-0.000008	-0.000006	 0.000003	 0.000039	-0.000013	 0.000003	 0.000039	-0.000013	 0.000000	 0.000014	 0.000004	 0.000003	 0.000000	 0.000000	-0.712572	-0.008159	 1.310742	 86.198970	 49.487950	-89.646780	-2.573035	-0.739925	 0.463022	 4.590282	-0.705078	-0.717109	 8.577779	 19.176040	-2.836478	-8.098795	-0.000021	 0.000011	 0.000517	 0.000160	 0.000013	-0.000258	 0.000756	-0.000010	 0.012969	 0.667629	-1.112118	 1.679193	 1.282880	-0.674527	 0.334982	 1.286472	 0.711007	-0.000005	-0.000043	-0.000001	-0.000003	 0.000000	 0.000000	-0.890204	-0.008562	 1.101182	 0.000000	-0.000008	 0.000006	-0.000003	 0.000039	 0.000013	-0.000003	 0.000039	 0.000013	 0.000000	 0.000014	-0.000004	-0.000003	 0.000000	 0.000000	 0.712572	-0.008159	-1.310742	-86.198980	 49.487950	 89.646800	 2.573038	-0.739921	-0.463021	-4.590279	-0.705076	 0.717109	-0.000001	-6.013633	-0.000022	 0.000001	 2.614234	-0.000018	 0.000000	-3.498952	 0.000000	 0.000000	 0.248285	 0.000000	 0.000008	-6.013632	 0.000023	-0.000009	 2.614225	-0.000003	 0.000000	-3.498953	 0.000000	 0.000000	 0.248285	 0.000000
 0.000000	 1.032722	 0.003576	 0.000000	 7.212389	 0.000000	 0.000000	 1.466434	 0.000000	 0.000000	-15.658460	-0.000004	-0.000029	-12.397530	-0.000083	 0.000000	 26.225450	 0.000000	-0.000002	-6.229259	 0.000024	-1.701261	 3.587029	 23.098790	 1.701262	 3.587039	-20.847600	-8.577779	 19.176040	 2.836478	 8.098792	 0.000002	 0.000003	-0.000512	 0.000143	-0.000011	 0.000258	 0.000754	 0.000011	-0.012967	 0.667629	 1.112118	-1.679194	 1.282879	 0.674526	-0.334984	 1.286472	-0.711007	 0.000005	-0.000042	 0.000001	 0.000003	 0.000000	 0.000000	 0.890204	-0.008562	-1.101182	 0.000000	-0.000008	-0.000006	 0.000003	 0.000039	-0.000013	 0.000003	 0.000039	-0.000013	 0.000000	 0.000014	 0.000004	 0.000003	 0.000000	 0.000000	-0.712572	-0.008159	 1.310742	 86.198970	 49.487950	-89.646780	-2.573035	-0.739925	 0.463022	 4.590282	-0.705078	-0.717109	 8.577779	 19.176040	-2.836478	-8.098794	-0.000021	 0.000011	 0.000516	 0.000158	 0.000013	-0.000259	 0.000761	-0.000010	 0.012969	 0.667629	-1.112118	 1.679193	 1.282880	-0.674527	 0.334982	 1.286472	 0.711007	-0.000005	-0.000043	-0.000001	-0.000003	 0.000000	 0.000000	-0.890204	-0.008562	 1.101182	 0.000000	-0.000008	 0.000006	-0.000003	 0.000039	 0.000013	-0.000003	 0.000039	 0.000013	 0.000000	 0.000014	-0.000004	-0.000003	 0.000000	 0.000000	 0.712572	-0.008159	-1.310742	-86.198980	 49.487950	 89.646800	 2.573038	-0.739921	-0.463021	-4.590279	-0.705076	 0.717109	-0.000001	-6.013633	-0.000022	 0.000001	 2.614234	-0.000018	 0.000000	-3.498952	 0.000000	 0.000000	 0.248285	 0.000000	 0.000008	-6.013632	 0.000023	-0.000009	 2.614225	-0.000003	 0.000000	-3.498953	 0.000000	 0.000000	 0.248285	 0.000000
 0.000000	 1.032722	 0.003576	 0.000000	 0.000000	 0.000000	-0.503857	 6.537169	 3.679309	-3.681604	 6.240973	 0.165424	-0.000029	-12.397530	-0.000083	 2.842322	 9.666400	-0.478569	 5.033437	-0.697291	-2.923500	-1.701261	 3.587029	 23.098790	 1.701262	 3.587039	-20.847600	 14.398590	-4.738773	 7.010345	-78.759150	 21.887120	-2.759540	-6.871202	 11.540120	-105.980700	 40.154530	 24.339640	-48.796520	-32.942270	 6.464782	-9.857308	-30.744850	 0.000000	 0.000000	-8.316329	 0.000000	 0.000000	-57.280330	-14.844540	 9.347072	-27.851010	 0.000000	 0.000000	-6.597517	 0.000000	 0.000000	-52.543220	-7.608054	 5.791830	-27.372660	 0.000000	 0.000000	-12.617070	 0.000000	 0.000000	-63.116750	-17.985290	 8.896648	-31.335330	 0.000000	 0.000000	-11.184120	 0.000000	 0.000000	 6.364957	 45.606540	-31.071980	-9.654144	-1.996619	-3.622943	 4.590282	-0.705078	-0.717109	 10.373300	-4.628314	-10.264770	 62.539250	 34.668530	 15.619980	-2.085998	-0.411746	 102.473300	-0.000258	 0.000759	-0.000010	 0.012969	 0.667629	-1.112118	 1.679193	 1.282880	-0.674527	 0.334982	 1.286472	 0.711007	-0.000005	-0.000043	-0.000001	-0.000003	 0.000000	 0.000000	-0.890204	-0.008562	 1.101182	 0.000000	-0.000008	 0.000006	-0.000003	 0.000039	 0.000013	-0.000003	 0.000039	 0.000013	 0.000000	 0.000014	-0.000004	-0.000003	 0.000000	 0.000000	 0.712572	-0.008159	-1.310742	-86.198980	 49.487950	 89.646800	 2.573038	-0.739921	-0.463021	-4.590279	-0.705076	 0.717109	-0.000001	-6.013633	-0.000022	 0.000001	 2.614234	-0.000018	 0.000000	-3.498952	 0.000000	 0.000000	 0.248285	 0.000000	 0.000008	-6.013632	 0.000023	-0.000009	 2.614224	-0.000003	 0.000000	-3.498953	 0.000000	 0.000000	 0.248285	 0.000000
 0.000000	 1.032722	 0.003576	 0.000000	 0.000000	 0.000000	-0.354478	 6.907778	 3.556004	-4.012170	 6.530381	 0.168451	-0.000029	-12.397530	-0.000082	 3.082997	 10.045860	-0.493104	 5.542508	-0.747667	-2.444073	-1.701261	 3.587029	 23.098790	 1.701262	 3.587039	-20.847600	 14.855080	-5.016711	 7.584656	-79.470920	 23.508870	-3.997089	-8.759147	 12.821080	-107.730000	 65.395640	 14.945550	-42.121670	-79.806020	-11.137490	 1.989355	-51.650590	 0.000000	 0.000000	-40.643750	 0.000000	 0.000000	-79.372420	-19.683500	 3.616441	-31.693180	 0.000000	 0.000000	-84.036190	 0.000000	 0.000000	-79.372420	-19.683500	 3.616441	-43.407540	 0.000000	 0.000000	-80.764320	 0.000000	 0.000000	-79.372420	-19.683500	 3.616441	-46.939210	 0.000000	 0.000000	-90.000000	 0.000000	 0.000000	-3.810248	 33.522640	-40.815950	 147.355000	 69.216890	-158.161800	 4.590282	-0.705078	-0.717109	 10.462130	-4.897323	-10.832260	 61.964770	 36.875880	 17.835220	-2.410461	-1.060593	 104.261500	-0.000257	 0.000768	-0.000010	 0.012969	 0.667629	-1.112118	 1.679193	 1.282880	-0.674527	 0.334982	 1.286472	 0.711007	-0.000005	-0.000043	-0.000001	-0.000003	 0.000000	 0.000000	-0.890204	-0.008562	 1.101182	 0.000000	-0.000008	 0.000006	-0.000003	 0.000039	 0.000013	-0.000003	 0.000039	 0.000013	 0.000000	 0.000014	-0.000004	-0.000003	 0.000000	 0.000000	 0.712572	-0.008159	-1.310742	-86.198980	 49.487950	 89.646800	 2.573038	-0.739921	-0.463021	-4.590279	-0.705076	 0.717109	-0.000001	-6.013633	-0.000022	 0.000001	 2.614234	-0.000018	 0.000000	-3.498952	 0.000000	 0.000000	 0.248285	 0.000000	 0.000008	-6.013632	 0.000023	-0.000009	 2.614225	-0.000003	 0.000000	-3.498953	 0.000000	 0.000000	 0.248285	 0.000000
 0.000000	 1.032722	 0.003576	 0.000000	 0.000000	 0.000000	-0.354478	 6.907779	 3.556004	-4.012170	 6.530381	 0.168451	-0.000028	-12.397530	-0.000082	 3.082996	 10.045860	-0.493104	 5.542508	-0.747669	-2.444073	-1.701261	 3.587029	 23.098790	 1.701262	 3.587039	-20.847600	 14.855080	-5.016711	 7.584656	-79.470940	 23.508870	-3.997084	-8.759137	 12.821070	-107.730000	 65.395630	 14.945540	-42.121670	-79.806020	-11.137490	 1.989355	-51.650590	 0.000000	 0.000000	-40.643750	 0.000000	 0.000000	-79.372420	-19.683500	 3.616441	-31.693180	 0.000000	 0.000000	-84.036190	 0.000000	 0.000000	-79.372420	-19.683500	 3.616441	-43.407540	 0.000000	 0.000000	-80.764320	 0.000000	 0.000000	-79.372420	-19.683500	 3.616441	-46.939210	 0.000000	 0.000000	-90.000000	 0.000000	 0.000000	-3.810248	 33.522640	-40.815950	 147.355000	 69.216890	-158.161800	 4.590282	-0.705078	-0.717109	 10.462130	-4.897323	-10.832260	 61.964790	 36.875890	 17.835220	-2.410492	-1.060594	 104.261500	-0.000268	 0.000765	-0.000003	 0.012969	 0.667629	-1.112118	 1.679193	 1.282880	-0.674527	 0.334982	 1.286472	 0.711007	-0.000005	-0.000043	-0.000001	-0.000003	 0.000000	 0.000000	-0.890204	-0.008562	 1.101182	 0.000000	-0.000008	 0.000006	-0.000003	 0.000039	 0.000013	-0.000003	 0.000039	 0.000013	 0.000000	 0.000014	-0.000004	-0.000003	 0.000000	 0.000000	 0.712572	-0.008159	-1.310742	-86.198980	 49.487950	 89.646800	 2.573038	-0.739921	-0.463021	-4.590279	-0.705076	 0.717109	-0.000001	-6.013633	-0.000022	 0.000001	 2.614234	-0.000018	 0.000000	-3.498952	 0.000000	 0.000000	 0.248285	 0.000000	 0.000008	-6.013632	 0.000023	-0.000009	 2.614225	-0.000003	 0.000000	-3.498953	 0.000000	 0.000000	 0.248285	 0.000000
 0.000000	 1.032722	 0.003576	 0.000000	 0.000000	 0.000000	-0.354478	 6.907779	 3.556004	-4.012170	 6.530381	 0.168451	-0.000027	-12.397530	-0.000082	 3.082995	 10.045860	-0.493104	 5.542510	-0.747668	-2.444072	-1.701261	 3.587029	 23.098790	 1.701262	 3.587039	-20.847600	 14.855080	-5.016711	 7.584656	-79.470940	 23.508870	-3.997081	-8.759149	 12.821070	-107.730000	 65.395610	 14.945550	-42.121690	-79.806020	-11.137490	 1.989355	-51.650590	 0.000000	 0.000000	-40.643750	 0.000000	 0.000000	-79.372420	-19.683500	 3.616441	-31.693180	 0.000000	 0.000000	-84.036190	 0.000000	 0.000000	-79.372420	-19.683500	 3.616441	-43.407540	 0.000000	 0.000000	-80.764320	 0.000000	 0.000000	-79.372420	-19.683500	 3.616441	-46.939210	 0.000000	 0.000000	-90.000000	 0.000000	 0.000000	-3.810248	 33.522640	-40.815950	 147.355000	 69.216890	-158.161800	 4.590282	-0.705078	-0.717109	 10.462130	-4.897323	-10.832260	 61.964800	 36.875900	 17.835220	-2.410515	-1.060592	 104.261500	-0.000273	 0.000765	-0.000003	 0.012969	 0.667629	-1.112118	 1.679193	 1.282880	-0.674527	 0.334982	 1.286472	 0.711007	-0.000005	-0.000043	-0.000001	-0.000003	 0.000000	 0.000000	-0.890204	-0.008562	 1.101182	 0.000000	-0.000008	 0.000006	-0.000003	 0.000039	 0.000013	-0.000003	 0.000039	 0.000013	 0.000000	 0.000014	-0.000004	-0.000003	 0.000000	 0.000000	 0.712572	-0.008159	-1.310742	-86.198980	 49.487950	 89.646800	 2.573038	-0.739921	-0.463021	-4.590279	-0.705076	 0.717109	-0.000001	-6.013633	-0.000022	 0.000001	 2.614234	-0.000018	 0.000000	-3.498952	 0.000000	 0.000000	 0.248285	 0.000000	 0.000008	-6.013632	 0.000023	-0.000009	 2.614225	-0.000003	 0.000000	-3.498953	 0.000000	 0.000000	 0.248285	 0.000000
 0.000000	 1.032722	 0.003576	 0.000000	 0.000000	 0.000000	-0.354478	 6.907779	 3.556004	-4.012170	 6.530381	 0.168451	-0.000025	-12.397530	-0.000082	 3.082995	 10.045860	-0.493104	 5.542508	-0.747667	-2.444073	-1.701261	 3.587029	 23.098790	 1.701262	 3.587039	-20.847600	 14.855080	-5.016711	 7.584656	-79.470950	 23.508870	-3.997079	-8.759148	 12.821080	-107.730000	 65.395610	 14.945560	-42.121670	-79.806020	-11.137490	 1.989355	-51.650590	 0.000000	 0.000000	-40.643750	 0.000000	 0.000000	-79.372420	-19.683500	 3.616441	-31.693180	 0.000000	 0.000000	-84.036190	 0.000000	 0.000000	-79.372420	-19.683500	 3.616441	-43.407540	 0.000000	 0.000000	-80.764320	 0.000000	 0.000000	-79.372420	-19.683500	 3.616441	-46.939210	 0.000000	 0.000000	-90.000000	 0.000000	 0.000000	-3.810248	 33.522640	-40.815950	 147.355000	 69.216890	-158.161800	 4.590282	-0.705078	-0.717109	 10.462130	-4.897323	-10.832260	 61.964830	 36.875900	 17.835210	-2.410548	-1.060593	 104.261500	-0.000283	 0.000760	-0.000003	 0.012969	 0.667629	-1.112118	 1.679193	 1.282880	-0.674527	 0.334982	 1.286472	 0.711007	-0.000005	-0.000043	-0.000001	-0.000003	 0.000000	 0.000000	-0.890204	-0.008562	 1.101182	 0.000000	-0.000008	 0.000006	-0.000003	 0.000039	 0.000013	-0.000003	 0.000039	 0.000013	 0.000000	 0.000014	-0.000004	-0.000003	 0.000000	 0.000000	 0.712572	-0.008159	-1.310742	-86.198980	 49.487950	 89.646800	 2.573038	-0.739921	-0.463021	-4.590279	-0.705076	 0.717109	-0.000001	-6.013633	-0.000022	 0.000001	 2.614233	-0.000018	 0.000000	-3.498952	 0.000000	 0.000000	 0.248285	 0.000000	 0.000008	-6.013632	 0.000023	-0.000009	 2.614225	-0.000003	 0.000000	-3.498953	 0.000000	 0.000000	 0.248285	 0.000000
 0.000000	 1.032722	 0.003576	 0.000000	 0.000000	 0.000000	-0.354478	 6.907779	 3.556004	-4.012170	 6.530381	 0.168451	-0.000024	-12.397530	-0.000081	 3.082994	 10.045860	-0.493105	 5.542509	-0.747667	-2.444072	-1.701261	 3.587029	 23.098790	 1.701262	 3.587039	-20.847600	 14.855080	-5.016711	 7.584656	-79.470950	 23.508870	-3.997077	-8.759150	 12.821070	-107.730000	 65.395590	 14.945560	-42.121680	-79.806020	-11.137490	 1.989355	-51.650590	 0.000000	 0.000000	-40.643750	 0.000000	 0.000000	-79.372420	-19.683500	 3.616441	-31.693180	 0.000000	 0.000000	-84.036190	 0.000000	 0.000000	-79.372420	-19.683500	 3.616441	-43.407540	 0.000000	 0.000000	-80.764320	 0.000000	 0.000000	-79.372420	-19.683500	 3.616441	-46.939210	 0.000000	 0.000000	-90.000000	 0.000000	 0.000000	-3.810248	 33.522640	-40.815950	 147.355000	 69.216890	-158.161800	 4.590282	-0.705078	-0.717109	 10.462130	-4.897323	-10.832260	 61.964840	 36.875900	 17.835210	-2.410570	-1.060591	 104.261500	-0.000301	 0.000755	-0.000003	 0.012969	 0.667629	-1.112118	 1.679193	 1.282880	-0.674527	 0.334982	 1.286472	 0.711007	-0.000005	-0.000043	-0.000001	-0.000003	 0.000000	 0.000000	-0.890204	-0.008562	 1.101182	 0.000000	-0.000008	 0.000006	-0.000003	 0.000039	 0.000013	-0.000003	 0.000039	 0.000013	 0.000000	 0.000014	-0.000004	-0.000003	 0.000000	 0.000000	 0.712572	-0.008159	-1.310742	-86.198980	 49.487950	 89.646800	 2.573038	-0.739921	-0.463021	-4.590279	-0.705076	 0.717109	-0.000001	-6.013633	-0.000022	 0.000001	 2.614233	-0.000018	 0.000000	-3.498952	 0.000000	 0.000000	 0.248285	 0.000000	 0.000008	-6.013632	 0.000023	-0.000009	 2.614225	-0.000003	 0.000000	-3.498953	 0.000000	 0.000000	 0.248285	 0.000000
 0.000000	 1.032722	 0.003576	 0.000000	 0.000000	 0.000000	-0.354478	 6.907779	 3.556004	-4.012170	 6.530381	 0.168451	-0.000023	-12.397530	-0.000081	 3.082993	 10.045860	-0.493105	 5.542510	-0.747665	-2.444073	-1.701261	 3.587029	 23.098790	 1.701262	 3.587039	-20.847600	 14.855080	-5.016711	 7.584656	-79.470950	 23.508870	-3.997072	-8.759144	 12.821070	-107.730000	 65.395570	 14.945560	-42.121690	-79.806020	-11.137490	 1.989355	-51.650590	 0.000000	 0.000000	-40.643750	 0.000000	 0.000000	-79.372420	-19.683500	 3.616441	-31.693180	 0.000000	 0.000000	-84.036190	 0.000000	 0.000000	-79.372420	-19.683500	 3.616441	-43.407540	 0.000000	 0.000000	-80.764320	 0.000000	 0.000000	-79.372420	-19.683500	 3.616441	-46.939210	 0.000000	 0.000000	-90.000000	 0.000000	 0.000000	-3.810248	 33.522640	-40.815950	 147.355000	 69.216890	-158.161800	 4.590282	-0.705078	-0.717109	 10.462130	-4.897323	-10.832260	 61.964860	 36.875920	 17.835210	-2.410590	-1.060599	 104.261400	-0.000307	 0.000765	 0.000014	 0.012969	 0.667629	-1.112118	 1.679193	 1.282880	-0.674527	 0.334982	 1.286472	 0.711007	-0.000005	-0.000043	-0.000001	-0.000003	 0.000000	 0.000000	-0.890204	-0.008562	 1.101182	 0.000000	-0.000008	 0.000006	-0.000003	 0.000039	 0.000013	-0.000003	 0.000039	 0.000013	 0.000000	 0.000014	-0.000004	-0.000003	 0.000000	 0.000000	 0.712572	-0.008159	-1.310742	-86.198980	 49.487950	 89.646800	 2.573038	-0.739921	-0.463021	-4.590279	-0.705076	 0.717109	-0.000001	-6.013633	-0.000022	 0.000001	 2.614233	-0.000018	 0.000000	-3.498952	 0.000000	 0.000000	 0.248285	 0.000000	 0.000008	-6.013632	 0.000023	-0.000009	 2.614225	-0.000003	 0.000000	-3.498953	 0.000000	 0.000000	 0.248285	 0.000000
 0.000000	 1.032722	 0.003576	 0.000000	 0.000000	 0.000000	-0.354478	 6.907779	 3.556004	-4.012170	 6.530381	 0.168451	-0.000022	-12.397530	-0.000081	 3.082992	 10.045860	-0.493105	 5.542511	-0.747667	-2.444073	-1.701261	 3.587029	 23.098790	 1.701262	 3.587039	-20.847600	 14.855080	-5.016711	 7.584656	-79.470950	 23.508870	-3.997072	-8.759149	 12.821080	-107.730000	 65.395570	 14.945570	-42.121690	-79.806020	-11.137490	 1.989355	-51.650590	 0.000000	 0.000000	-40.643750	 0.000000	 0.000000	-79.372420	-19.683500	 3.616441	-31.693180	 0.000000	 0.000000	-84.036190	 0.000000	 0.000000	-79.372420	-19.683500	 3.616441	-43.407540	 0.000000	 0.000000	-80.764320	 0.000000	 0.000000	-79.372420	-19.683500	 3.616441	-46.939210	 0.000000	 0.000000	-90.000000	 0.000000	 0.000000	-3.810248	 33.522640	-40.815950	 147.355000	 69.216890	-158.161800	 4.590282	-0.705078	-0.717109	 10.462130	-4.897323	-10.832260	 61.964850	 36.875920	 17.835220	-2.410587	-1.060600	 104.261400	-0.000315	 0.000769	-0.000003	 0.012969	 0.667629	-1.112118	 1.679193	 1.282880	-0.674527	 0.334982	 1.286472	 0.711007	-0.000005	-0.000043	-0.000001	-0.000003	 0.000000	 0.000000	-0.890204	-0.008562	 1.101182	 0.000000	-0.000008	 0.000006	-0.000003	 0.000039	 0.000013	-0.000003	 0.000039	 0.000013	 0.000000	 0.000014	-0.000004	-0.000003	 0.000000	 0.000000	 0.712572	-0.008159	-1.310742	-86.198980	 49.487950	 89.646800	 2.573038	-0.739921	-0.463021	-4.590279	-0.705076	 0.717109	-0.000001	-6.013633	-0.000022	 0.000001	 2.614233	-0.000018	 0.000000	-3.498952	 0.000000	 0.000000	 0.248285	 0.000000	 0.000008	-6.013632	 0.000023	-0.000009	 2.614225	-0.000003	 0.000000	-3.498953	 0.000000	 0.000000	 0.248285	 0.000000
 0.000000	 1.032722	 0.003576	 0.000000	 0.000000	 0.000000	-0.354478	 6.907779	 3.556004	-4.012170	 6.530381	 0.168451	-0.000021	-12.397530	-0.000081	 3.082991	 10.045860	-0.493105	 5.542511	-0.747665	-2.444073	-1.701261	 3.587029	 23.098790	 1.701262	 3.587039	-20.847600	 14.855080	-5.016711	 7.584656	-79.470950	 23.508860	-3.997071	-8.759151	 12.821080	-107.730000	 65.395580	 14.945580	-42.121690	-79.806020	-11.137490	 1.989355	-51.650590	 0.000000	 0.000000	-40.643750	 0.000000	 0.000000	-79.372420	-19.683500	 3.616441	-31.693180	 0.000000	 0.000000	-84.036190	 0.000000	 0.000000	-79.372420	-19.683500	 3.616441	-43.407540	 0.000000	 0.000000	-80.764320	 0.000000	 0.000000	-79.372420	-19.683500	 3.616441	-46.939210	 0.000000	 0.000000	-90.000000	 0.000000	 0.000000	-3.810248	 33.522640	-40.815950	 147.355000	 69.216890	-158.161800	 4.590282	-0.705078	-0.717109	 10.462130	-4.897323	-10.832260	 61.964870	 36.875920	 17.835220	-2.410604	-1.060607	 104.261400	-0.000320	 0.000772	-0.000014	 0.012969	 0.667629	-1.112118	 1.679193	 1.282880	-0.674527	 0.334982	 1.286472	 0.711007	-0.000005	-0.000043	-0.000001	-0.000003	 0.000000	 0.000000	-0.890204	-0.008562	 1.101182	 0.000000	-0.000008	 0.000006	-0.000003	 0.000039	 0.000013	-0.000003	 0.000039	 0.000013	 0.000000	 0.000014	-0.000004	-0.000003	 0.000000	 0.000000	 0.712572	-0.008159	-1.310742	-86.198980	 49.487950	 89.646800	 2.573038	-0.739921	-0.463021	-4.590279	-0.705076	 0.717109	-0.000001	-6.013633	-0.000022	 0.000001	 2.614233	-0.000018	 0.000000	-3.498952	 0.000000	 0.000000	 0.248285	 0.000000	 0.000008	-6.013632	 0.000023	-0.000009	 2.614225	-0.000003	 0.000000	-3.498953	 0.000000	 0.000000	 0.248285	 0.000000
 0.000000	 1.032722	 0.003576	 0.000000	 0.000000	 0.000000	-0.060984	 6.948188	 3.552339	-4.327528	 6.799897	 0.171950	-0.000021	-12.397530	-0.000081	 3.241690	 10.423680	-0.499469	 5.736478	-0.403256	-2.379350	-1.701261	 3.587029	 23.098790	 1.701262	 3.587039	-20.847600	 15.251250	-5.268961	 8.126966	-80.064510	 24.708780	-4.724010	-9.581608	 13.762220	-109.800600	 62.154250	 15.408240	-39.917340	-76.041010	-10.640750	 2.327660	-49.219310	 0.045309	 0.056971	-38.664280	 0.072638	-0.012499	-75.539640	-18.790140	 4.108069	-30.125760	 0.000000	 0.000000	-80.118350	 0.035885	-0.042677	-75.539640	-18.790130	 4.108069	-41.281400	 0.000002	 0.000000	-77.008820	 0.000002	 0.000001	-75.539640	-18.790130	 4.108071	-44.648160	 0.000000	 0.000000	-85.916890	-0.045287	 0.048634	-0.700066	 35.282670	-41.780400	 141.185900	 73.547570	-151.677900	 4.590282	-0.705078	-0.717109	 10.503250	-5.142376	-11.331180	 61.614620	 37.268200	 18.226250	-3.293952	-0.709092	 107.880700	-90.429080	 52.548300	 67.452580	 43.416360	-14.044600	-14.384990	 54.981110	 0.000000	 0.000000	 56.447340	 0.000000	 0.000000	 74.485630	-19.326200	-5.248964	 58.617800	 0.000000	 0.000000	 12.461930	 0.000000	 0.000000	 79.668910	-14.468780	-2.607787	 20.580980	 0.000000	 0.000000	 27.726920	 0.000000	 0.000000	 79.372420	-19.683500	-3.616441	 43.636950	 0.000000	 0.000000	 35.343990	 0.000000	 0.000000	-42.312740	 49.015190	 48.125320	 6.720528	-5.277652	-5.914495	-24.039690	 33.704230	 24.659350	-0.000001	-6.013633	-0.000022	 0.000001	 2.614233	-0.000018	 0.000000	-3.498952	 0.000000	 0.000000	 0.248285	 0.000000	 0.000008	-6.013632	 0.000023	-0.000009	 2.614225	-0.000003	 0.000000	-3.498953	 0.000000	 0.000000	 0.248285	 0.000000
 0.000000	 1.032722	 0.003576	 0.000000	 0.000000	 0.000000	 0.083611	 6.700112	 3.652091	-4.353017	 6.827009	 0.173867	-0.000021	-12.397530	-0.000081	 3.201043	 10.418030	-0.496362	 5.528064	-0.003278	-2.700726	-1.701261	 3.587029	 23.098790	 1.701262	 3.587039	-20.847600	 15.253400	-5.285458	 8.157552	-80.074370	 24.502970	-4.433206	-10.199740	 13.995070	-110.084900	 59.027450	 15.737620	-37.778920	-72.435530	-10.144410	 2.620050	-46.900280	 0.090743	 0.109475	-36.778800	 0.141386	-0.026730	-71.885770	-17.904980	 4.517675	-28.634290	 0.000000	 0.000000	-76.353310	 0.067546	-0.085908	-71.885770	-17.904980	 4.517675	-39.255400	 0.000004	 0.000000	-73.403700	 0.000004	 0.000001	-71.885770	-17.904980	 4.517678	-42.463890	 0.000000	 0.000000	-81.988380	-0.085483	 0.098356	 2.375710	 36.923480	-42.834060	 131.214500	 77.426660	-141.404900	 4.590282	-0.705078	-0.717109	 10.471560	-5.159022	-11.332280	 61.777570	 35.939390	 16.853760	-3.212540	 0.259338	 109.782100	-89.639720	 55.694740	 61.216170	 79.962790	 4.910297	 0.867977	 21.233430	 0.000000	 0.000000	 49.870650	 0.000000	 0.000000	 79.372420	-19.683500	-3.616441	 52.880070	 0.000000	 0.000000	 13.212580	 0.000000	 0.000000	 79.907230	-7.734730	-1.372319	 23.773220	 0.000000	 0.000000	 46.066940	 0.000000	 0.000000	 79.579710	-16.242680	-2.944592	 48.097350	 0.000000	 0.000000	 44.509720	 0.000000	 0.000000	-49.593690	 46.689460	 54.572720	 7.736295	-2.955300	-7.890792	-22.166000	 28.326500	 21.400810	-0.000001	-6.013633	-0.000022	 0.000001	 2.614233	-0.000018	 0.000000	-3.498952	 0.000000	 0.000000	 0.248285	 0.000000	 0.000008	-6.013632	 0.000023	-0.000009	 2.614225	-0.000003	 0.000000	-3.498953	 0.000000	 0.000000	 0.248285	 0.000000
 0.000000	 1.032722	 0.003576	 0.000000	 0.000000	 0.000000	 0.083611	 6.700112	 3.652091	-4.353017	 6.827009	 0.173867	-0.000021	-12.397520	-0.000081	 3.201043	 10.418020	-0.496363	 5.528063	-0.003279	-2.700726	-1.701261	 3.587029	 23.098790	 1.701262	 3.587039	-20.847600	 15.253400	-5.285458	 8.157552	-80.074360	 24.502970	-4.433211	-10.199760	 13.995090	-110.084900	 59.027480	 15.737630	-37.778950	-72.435530	-10.144410	 2.620050	-46.900280	 0.090743	 0.109475	-36.778800	 0.141386	-0.026730	-71.885770	-17.904980	 4.517675	-28.634290	 0.000000	 0.000000	-76.353310	 0.067546	-0.085908	-71.885770	-17.904980	 4.517675	-39.255400	 0.000004	 0.000000	-73.403700	 0.000004	 0.000001	-71.885770	-17.904980	 4.517678	-42.463890	 0.000000	 0.000000	-81.988380	-0.085483	 0.098356	 2.375710	 36.923480	-42.834060	 131.214500	 77.426660	-141.404900	 4.590282	-0.705078	-0.717109	 10.471560	-5.159022	-11.332280	 61.777590	 35.939400	 16.853750	-3.212560	 0.259346	 109.782100	-89.639700	 55.694730	 61.216160	 79.962790	 4.910297	 0.867977	 21.233430	 0.000000	 0.000000	 49.870650	 0.000000	 0.000000	 79.372420	-19.683500	-3.616441	 52.880070	 0.000000	 0.000000	 13.212580	 0.000000	 0.000000	 79.907230	-7.734730	-1.372319	 23.773220	 0.000000	 0.000000	 46.066940	 0.000000	 0.000000	 79.579710	-16.242680	-2.944592	 48.097350	 0.000000	 0.000000	 44.509720	 0.000000	 0.000000	-49.593690	 46.689460	 54.572720	 7.736295	-2.955300	-7.890792	-22.166000	 28.326500	 21.400810	-0.000001	-6.013633	-0.000022	 0.000001	 2.614232	-0.000018	 0.000000	-3.498952	 0.000000	 0.000000	 0.248285	 0.000000	 0.000008	-6.013632	 0.000023	-0.000009	 2.614225	-0.000003	 0.000000	-3.498953	 0.000000	 0.000000	 0.248285	 0.000000
 0.000000	 1.032722	 0.003576	 0.000000	 0.000000	 0.000000	 0.083611	 6.700112	 3.652091	-4.353017	 6.827009	 0.173867	-0.000022	-12.397530	-0.000081	 3.201043	 10.418020	-0.496363	 5.528060	-0.003279	-2.700726	-1.701261	 3.587029	 23.098790	 1.701262	 3.587039	-20.847600	 15.253400	-5.285458	 8.157552	-80.074380	 24.502970	-4.433211	-10.199760	 13.995100	-110.084900	 59.027500	 15.737640	-37.778950	-72.435530	-10.144410	 2.620050	-46.900280	 0.090743	 0.109475	-36.778800	 0.141386	-0.026730	-71.885770	-17.904980	 4.517675	-28.634290	 0.000000	 0.000000	-76.353310	 0.067546	-0.085908	-71.885770	-17.904980	 4.517675	-39.255400	 0.000004	 0.000000	-73.403700	 0.000004	 0.000001	-71.885770	-17.904980	 4.517678	-42.463890	 0.000000	 0.000000	-81.988380	-0.085483	 0.098356	 2.375710	 36.923480	-42.834060	 131.214500	 77.426660	-141.404900	 4.590282	-0.705078	-0.717109	 10.471560	-5.159022	-11.332280	 61.777610	 35.939390	 16.853740	-3.212575	 0.259350	 109.782100	-89.639710	 55.694730	 61.216160	 79.962790	 4.910297	 0.867977	 21.233430	 0.000000	 0.000000	 49.870650	 0.000000	 0.000000	 79.372420	-19.683500	-3.616441	 52.880070	 0.000000	 0.000000	 13.212580	 0.000000	 0.000000	 79.907230	-7.734730	-1.372319	 23.773220	 0.000000	 0.000000	 46.066940	 0.000000	 0.000000	 79.579710	-16.242680	-2.944592	 48.097350	 0.000000	 0.000000	 44.509720	 0.000000	 0.000000	-49.593690	 46.689460	 54.572720	 7.736295	-2.955300	-7.890792	-22.166000	 28.326500	 21.400810	-0.000001	-6.013633	-0.000022	 0.000001	 2.614232	-0.000018	 0.000000	-3.498952	 0.000000	 0.000000	 0.248285	 0.000000	 0.000008	-6.013632	 0.000023	-0.000009	 2.614225	-0.000003	 0.000000	-3.498953	 0.000000	 0.000000	 0.248285	 0.000000
 0.000000	 1.032722	 0.003576	 0.000000	 0.000000	 0.000000	 0.083611	 6.700112	 3.652091	-4.353017	 6.827009	 0.173867	-0.000022	-12.397520	-0.000080	 3.201044	 10.418020	-0.496363	 5.528059	-0.003280	-2.700726	-1.701261	 3.587029	 23.098790	 1.701262	 3.587039	-20.847600	 15.253400	-5.285458	 8.157552	-80.074390	 24.502980	-4.433212	-10.199750	 13.995100	-110.084800	 59.027520	 15.737640	-37.778950	-72.435530	-10.144410	 2.620050	-46.900280	 0.090743	 0.109475	-36.778800	 0.141386	-0.026730	-71.885770	-17.904980	 4.517675	-28.634290	 0.000000	 0.000000	-76.353310	 0.067546	-0.085908	-71.885770	-17.904980	 4.517675	-39.255400	 0.000004	 0.000000	-73.403700	 0.000004	 0.000001	-71.885770	-17.904980	 4.517678	-42.463890	 0.000000	 0.000000	-81.988380	-0.085483	 0.098356	 2.375710	 36.923480	-42.834060	 131.214500	 77.426660	-141.404900	 4.590282	-0.705078	-0.717109	 10.471560	-5.159022	-11.332280	 61.777620	 35.939390	 16.853730	-3.212577	 0.259358	 109.782100	-89.639710	 55.694730	 61.216160	 79.962790	 4.910297	 0.867977	 21.233430	 0.000000	 0.000000	 49.870650	 0.000000	 0.000000	 79.372420	-19.683500	-3.616441	 52.880070	 0.000000	 0.000000	 13.212580	 0.000000	 0.000000	 79.907230	-7.734730	-1.372319	 23.773220	 0.000000	 0.000000	 46.066940	 0.000000	 0.000000	 79.579710	-16.242680	-2.944592	 48.097350	 0.000000	 0.000000	 44.509720	 0.000000	 0.000000	-49.593690	 46.689460	 54.572720	 7.736295	-2.955300	-7.890792	-22.166000	 28.326500	 21.400810	-0.000001	-6.013633	-0.000022	 0.000001	 2.614232	-0.000018	 0.000000	-3.498952	 0.000000	 0.000000	 0.248285	 0.000000	 0.000008	-6.013632	 0.000023	-0.000009	 2.614225	-0.000003	 0.000000	-3.498953	 0.000000	 0.000000	 0.248285	 0.000000
 0.000000	 1.032722	 0.003576	 0.000000	 0.000000	 0.000000	 0.083611	 6.700112	 3.652091	-4.353017	 6.827009	 0.173867	-0.000023	-12.397520	-0.000080	 3.201044	 10.418020	-0.496363	 5.528056	-0.003279	-2.700726	-1.701261	 3.587029	 23.098790	 1.701262	 3.587039	-20.847600	 15.253400	-5.285458	 8.157552	-80.074390	 24.502980	-4.433214	-10.199740	 13.995110	-110.084800	 59.027540	 15.737630	-37.778940	-72.435530	-10.144410	 2.620050	-46.900280	 0.090743	 0.109475	-36.778800	 0.141386	-0.026730	-71.885770	-17.904980	 4.517675	-28.634290	 0.000000	 0.000000	-76.353310	 0.067546	-0.085908	-71.885770	-17.904980	 4.517675	-39.255400	 0.000004	 0.000000	-73.403700	 0.000004	 0.000001	-71.885770	-17.904980	 4.517678	-42.463890	 0.000000	 0.000000	-81.988380	-0.085483	 0.098356	 2.375710	 36.923480	-42.834060	 131.214500	 77.426660	-141.404900	 4.590282	-0.705078	-0.717109	 10.471560	-5.159022	-11.332280	 61.777630	 35.939380	 16.853730	-3.212586	 0.259366	 109.782100	-89.639700	 55.694730	 61.216160	 79.962790	 4.910297	 0.867977	 21.233430	 0.000000	 0.000000	 49.870650	 0.000000	 0.000000	 79.372420	-19.683500	-3.616441	 52.880070	 0.000000	 0.000000	 13.212580	 0.000000	 0.000000	 79.907230	-7.734730	-1.372319	 23.773220	 0.000000	 0.000000	 46.066940	 0.000000	 0.000000	 79.579710	-16.242680	-2.944592	 48.097350	 0.000000	 0.000000	 44.509720	 0.000000	 0.000000	-49.593690	 46.689460	 54.572720	 7.736295	-2.955300	-7.890792	-22.166000	 28.326500	 21.400810	-0.000001	-6.013633	-0.000022	 0.000001	 2.614232	-0.000018	 0.000000	-3.498952	 0.000000	 0.000000	 0.248285	 0.000000	 0.000008	-6.013632	 0.000023	-0.000009	 2.614225	-0.000003	 0.000000	-3.498953	 0.000000	 0.000000	 0.248285	 0.000000
 0.000000	 1.032722	 0.003576	 0.000000	 0.000000	 0.000000	 0.120247	 6.499156	 3.521886	-3.946187	 6.603607	 0.119404	-0.000023	-12.397520	-0.000080	 3.066456	 11.014940	-0.442880	 5.376769	-0.071105	-2.077334	-1.701261	 3.587029	 23.098790	 1.701262	 3.587039	-20.847600	 15.137640	-5.288831	 8.758516	-80.711120	 25.017920	-4.223204	-9.766001	 14.647540	-111.380800	 65.741470	 22.558650	-41.902430	-79.655980	-14.740800	 2.659063	-52.916650	 0.000000	 0.000000	-32.034460	 0.000000	 0.000000	-79.372420	-19.683500	 3.616441	-46.499610	 0.000000	 0.000000	-90.000000	 0.000000	 0.000000	-79.372420	-19.683500	 3.616441	-57.842450	 0.000000	 0.000000	-82.963520	 0.000000	 0.000000	-79.372420	-19.683500	 3.616441	-66.898530	 0.000000	 0.000000	-81.123450	 0.000000	 0.000000	-7.036304	 32.124680	-39.307460	 146.898200	 72.237710	-158.675700	 4.590282	-0.705078	-0.717109	 9.971238	-5.157272	-11.846420	 61.436730	 35.516940	 16.522290	-3.335963	 1.102784	 112.158600	-82.360940	 55.658860	 54.993240	 76.234250	 4.679835	 0.921840	 20.259500	 0.057896	-0.043667	 47.460110	 0.073490	 0.006902	 75.539640	-18.790140	-4.108069	 50.315940	 0.000000	 0.000000	 12.508990	 0.006000	 0.054752	 76.165690	-7.384404	-1.560511	 22.591840	 0.000002	 0.000000	 43.816450	 0.000002	 0.000000	 75.781700	-15.506090	-3.346312	 45.752630	 0.000000	 0.000000	 42.365430	-0.023763	-0.061319	-51.224690	 47.163840	 56.126480	 7.485298	-2.828955	-7.524408	-20.947340	 27.066940	 20.053810	-0.000001	-6.013633	-0.000022	 0.000001	 2.614232	-0.000018	 0.000000	-3.498952	 0.000000	 0.000000	 0.248285	 0.000000	 0.000008	-6.013632	 0.000023	-0.000009	 2.614225	-0.000003	 0.000000	-3.498953	 0.000000	 0.000000	 0.248285	 0.000000
 0.000000	 1.032722	 0.003576	 0.000000	 0.000000	 0.000000	 0.055128	 6.491717	 3.319453	-3.543543	 6.374964	 0.071134	-0.000022	-12.397520	-0.000079	 2.981602	 11.620690	-0.396621	 5.394135	-0.455170	-1.216594	-1.701261	 3.587029	 23.098790	 1.701262	 3.587039	-20.847600	 15.043110	-5.288594	 9.335845	-81.369710	 25.729100	-4.251636	-9.986028	 15.519160	-112.189300	 63.614400	 23.370440	-42.366050	-79.506150	-17.554670	 3.197659	-55.191090	 0.000000	 0.000000	-34.651920	 0.000000	 0.000000	-79.372420	-19.683500	 3.616441	-47.102190	 0.000000	 0.000000	-90.000000	 0.000000	 0.000000	-79.372420	-19.683500	 3.616441	-56.576120	 0.000000	 0.000000	-79.759070	 0.000000	 0.000000	-79.372420	-19.683500	 3.616441	-66.340510	 0.000000	 0.000000	-76.889710	 0.000000	 0.000000	-9.517117	 33.023920	-34.769790	 141.448700	 75.813450	-154.204900	 4.590282	-0.705078	-0.717109	 9.502733	-5.151468	-12.374780	 61.000240	 36.127940	 17.252420	-3.940745	 0.989541	 113.135500	-75.445550	 55.207100	 49.095260	 72.656920	 4.455800	 0.959279	 19.333720	 0.113613	-0.084258	 45.160960	 0.143255	 0.016359	 71.885770	-17.904980	-4.517675	 47.868970	 0.000000	 0.000000	 11.840350	 0.011079	 0.106848	 72.578270	-7.037383	-1.718975	 21.468500	 0.000004	 0.000001	 41.671130	 0.000004	 0.000000	 72.152910	-14.776330	-3.682388	 43.516780	 0.000000	 0.000000	 40.321990	-0.044259	-0.120543	-52.806150	 47.586510	 57.634720	 7.246095	-2.710398	-7.175817	-19.830330	 25.844790	 18.812980	-0.000001	-6.013633	-0.000022	 0.000001	 2.614232	-0.000018	 0.000000	-3.498952	 0.000000	 0.000000	 0.248285	 0.000000	 0.000008	-6.013632	 0.000023	-0.000009	 2.614225	-0.000003	 0.000000	-3.498953	 0.000000	 0.000000	 0.248285	 0.000000
 0.000000	 1.032722	 0.003576	 0.000000	 0.000000	 0.000000	 0.055128	 6.491717	 3.319453	-3.543543	 6.374964	 0.071134	-0.000021	-12.397520	-0.000080	 2.981601	 11.620690	-0.396621	 5.394136	-0.455170	-1.216594	-1.701261	 3.587029	 23.098790	 1.701262	 3.587039	-20.847600	 15.043110	-5.288594	 9.335845	-81.369710	 25.729100	-4.251636	-9.986026	 15.519170	-112.189300	 63.614410	 23.370430	-42.366040	-79.506150	-17.554670	 3.197659	-55.191090	 0.000000	 0.000000	-34.651920	 0.000000	 0.000000	-79.372420	-19.683500	 3.616441	-47.102190	 0.000000	 0.000000	-90.000000	 0.000000	 0.000000	-79.372420	-19.683500	 3.616441	-56.576120	 0.000000	 0.000000	-79.759070	 0.000000	 0.000000	-79.372420	-19.683500	 3.616441	-66.340510	 0.000000	 0.000000	-76.889710	 0.000000	 0.000000	-9.517117	 33.023920	-34.769790	 141.448700	 75.813450	-154.204900	 4.590282	-0.705078	-0.717109	 9.502733	-5.151468	-12.374780	 61.000210	 36.127940	 17.252440	-3.940733	 0.989545	 113.135500	-75.445560	 55.207100	 49.095240	 72.656920	 4.455800	 0.959279	 19.333720	 0.113613	-0.084258	 45.160960	 0.143255	 0.016359	 71.885770	-17.904980	-4.517675	 47.868970	 0.000000	 0.000000	 11.840350	 0.011079	 0.106848	 72.578270	-7.037383	-1.718975	 21.468500	 0.000004	 0.000001	 41.671130	 0.000004	 0.000000	 72.152910	-14.776330	-3.682388	 43.516780	 0.000000	 0.000000	 40.321990	-0.044259	-0.120543	-52.806150	 47.586510	 57.634720	 7.246095	-2.710398	-7.175817	-19.830330	 25.844790	 18.812980	-0.000001	-6.013633	-0.000022	 0.000001	 2.614231	-0.000018	 0.000000	-3.498952	 0.000000	 0.000000	 0.248285	 0.000000	 0.000008	-6.013632	 0.000023	-0.000009	 2.614225	-0.000003	 0.000000	-3.498953	 0.000000	 0.000000	 0.248285	 0.000000
 0.000000	 1.032722	 0.003576	 0.000000	 0.000000	 0.000000	 0.055128	 6.491717	 3.319453	-3.543543	 6.374964	 0.071134	-0.000021	-12.397520	-0.000080	 2.981601	 11.620690	-0.396620	 5.394136	-0.455172	-1.216594	-1.701261	 3.587029	 23.098790	 1.701262	 3.587039	-20.847600	 15.043110	-5.288594	 9.335845	-81.369710	 25.729100	-4.251635	-9.986022	 15.519160	-112.189400	 63.614410	 23.370420	-42.366030	-79.506150	-17.554670	 3.197659	-55.191090	 0.000000	 0.000000	-34.651920	 0.000000	 0.000000	-79.372420	-19.683500	 3.616441	-47.102190	 0.000000	 0.000000	-90.000000	 0.000000	 0.000000	-79.372420	-19.683500	 3.616441	-56.576120	 0.000000	 0.000000	-79.759070	 0.000000	 0.000000	-79.372420	-19.683500	 3.616441	-66.340510	 0.000000	 0.000000	-76.889710	 0.000000	 0.000000	-9.517117	 33.023920	-34.769790	 141.448700	 75.813450	-154.204900	 4.590282	-0.705078	-0.717109	 9.502733	-5.151468	-12.374780	 61.000190	 36.127940	 17.252450	-3.940727	 0.989532	 113.135500	-75.445530	 55.207100	 49.095220	 72.656920	 4.455800	 0.959279	 19.333720	 0.113613	-0.084258	 45.160960	 0.143255	 0.016359	 71.885770	-17.904980	-4.517675	 47.868970	 0.000000	 0.000000	 11.840350	 0.011079	 0.106848	 72.578270	-7.037383	-1.718975	 21.468500	 0.000004	 0.000001	 41.671130	 0.000004	 0.000000	 72.152910	-14.776330	-3.682388	 43.516780	 0.000000	 0.000000	 40.321990	-0.044259	-0.120543	-52.806150	 47.586510	 57.634720	 7.246095	-2.710398	-7.175817	-19.830330	 25.844790	 18.812980	-0.000001	-6.013633	-0.000022	 0.000001	 2.614231	-0.000018	 0.000000	-3.498952	 0.000000	 0.000000	 0.248285	 0.000000	 0.000008	-6.013632	 0.000023	-0.000009	 2.614225	-0.000003	 0.000000	-3.498953	 0.000000	 0.000000	 0.248285	 0.000000
 0.000000	 1.032722	 0.003576	 0.000000	 0.000000	 0.000000	 0.055128	 6.491717	 3.319453	-3.543543	 6.374964	 0.071134	-0.000021	-12.397520	-0.000080	 2.981600	 11.620690	-0.396620	 5.394136	-0.455172	-1.216593	-1.701261	 3.587029	 23.098790	 1.701262	 3.587039	-20.847600	 15.043110	-5.288594	 9.335845	-81.369700	 25.729100	-4.251635	-9.986039	 15.519150	-112.189400	 63.614390	 23.370420	-42.366030	-79.506150	-17.554670	 3.197659	-55.191090	 0.000000	 0.000000	-34.651920	 0.000000	 0.000000	-79.372420	-19.683500	 3.616441	-47.102190	 0.000000	 0.000000	-90.000000	 0.000000	 0.000000	-79.372420	-19.683500	 3.616441	-56.576120	 0.000000	 0.000000	-79.759070	 0.000000	 0.000000	-79.372420	-19.683500	 3.616441	-66.340510	 0.000000	 0.000000	-76.889710	 0.000000	 0.000000	-9.517117	 33.023920	-34.769790	 141.448700	 75.813450	-154.204900	 4.590282	-0.705078	-0.717109	 9.502733	-5.151468	-12.374780	 61.000180	 36.127940	 17.252470	-3.940736	 0.989525	 113.135500	-75.445520	 55.207110	 49.095200	 72.656920	 4.455800	 0.959279	 19.333720	 0.113613	-0.084258	 45.160960	 0.143255	 0.016359	 71.885770	-17.904980	-4.517675	 47.868970	 0.000000	 0.000000	 11.840350	 0.011079	 0.106848	 72.578270	-7.037383	-1.718975	 21.468500	 0.000004	 0.000001	 41.671130	 0.000004	 0.000000	 72.152910	-14.776330	-3.682388	 43.516780	 0.000000	 0.000000	 40.321990	-0.044259	-0.120543	-52.806150	 47.586510	 57.634720	 7.246095	-2.710398	-7.175817	-19.830330	 25.844790	 18.812980	-0.000001	-6.013633	-0.000022	 0.000001	 2.614231	-0.000018	 0.000000	-3.498952	 0.000000	 0.000000	 0.248285	 0.000000	 0.000008	-6.013632	 0.000023	-0.000009	 2.614225	-0.000003	 0.000000	-3.498953	 0.000000	 0.000000	 0.248285	 0.000000
 0.000000	 1.032722	 0.003576	 0.000000	 0.000000	 0.000000	 0.055128	 6.491717	 3.319453	-3.543543	 6.374964	 0.071134	-0.000021	-12.397520	-0.000080	 2.981600	 11.620690	-0.396620	 5.394136	-0.455174	-1.216593	-1.701261	 3.587029	 23.098790	 1.701262	 3.587039	-20.847600	 15.043110	-5.288594	 9.335845	-81.369680	 25.729100	-4.251634	-9.986037	 15.519150	-112.189400	 63.614400	 23.370420	-42.366020	-79.506150	-17.554670	 3.197659	-55.191090	 0.000000	 0.000000	-34.651920	 0.000000	 0.000000	-79.372420	-19.683500	 3.616441	-47.102190	 0.000000	 0.000000	-90.000000	 0.000000	 0.000000	-79.372420	-19.683500	 3.616441	-56.576120	 0.000000	 0.000000	-79.759070	 0.000000	 0.000000	-79.372420	-19.683500	 3.616441	-66.340510	 0.000000	 0.000000	-76.889710	 0.000000	 0.000000	-9.517117	 33.023920	-34.769790	 141.448700	 75.813450	-154.204900	 4.590282	-0.705078	-0.717109	 9.502733	-5.151468	-12.374780	 61.000170	 36.127940	 17.252480	-3.940738	 0.989521	 113.135500	-75.445530	 55.207130	 49.095180	 72.656920	 4.455800	 0.959279	 19.333720	 0.113613	-0.084258	 45.160960	 0.143255	 0.016359	 71.885770	-17.904980	-4.517675	 47.868970	 0.000000	 0.000000	 11.840350	 0.011079	 0.106848	 72.578270	-7.037383	-1.718975	 21.468500	 0.000004	 0.000001	 41.671130	 0.000004	 0.000000	 72.152910	-14.776330	-3.682388	 43.516780	 0.000000	 0.000000	 40.321990	-0.044259	-0.120543	-52.806150	 47.586510	 57.634720	 7.246095	-2.710398	-7.175817	-19.830330	 25.844790	 18.812980	-0.000001	-6.013633	-0.000022	 0.000001	 2.614231	-0.000018	 0.000000	-3.498952	 0.000000	 0.000000	 0.248285	 0.000000	 0.000008	-6.013632	 0.000023	-0.000009	 2.614225	-0.000003	 0.000000	-3.498953	 0.000000	 0.000000	 0.248285	 0.000000
 0.000000	 1.032722	 0.003576	 0.000000	 0.000000	 0.000000	 0.055128	 6.491717	 3.319453	-3.543543	 6.374964	 0.071134	-0.000021	-12.397510	-0.000081	 2.981600	 11.620690	-0.396620	 5.394136	-0.455177	-1.216593	-1.701261	 3.587029	 23.098790	 1.701262	 3.587039	-20.847600	 15.043110	-5.288594	 9.335845	-81.369680	 25.729100	-4.251634	-9.986032	 15.519160	-112.189400	 63.614410	 23.370420	-42.366030	-79.506150	-17.554670	 3.197659	-55.191090	 0.000000	 0.000000	-34.651920	 0.000000	 0.000000	-79.372420	-19.683500	 3.616441	-47.102190	 0.000000	 0.000000	-90.000000	 0.000000	 0.000000	-79.372420	-19.683500	 3.616441	-56.576120	 0.000000	 0.000000	-79.759070	 0.000000	 0.000000	-79.372420	-19.683500	 3.616441	-66.340510	 0.000000	 0.000000	-76.889710	 0.000000	 0.000000	-9.517117	 33.023920	-34.769790	 141.448700	 75.813450	-154.204900	 4.590282	-0.705078	-0.717109	 9.502733	-5.151468	-12.374780	 61.000140	 36.127940	 17.252500	-3.940737	 0.989510	 113.135500	-75.445500	 55.207130	 49.095140	 72.656920	 4.455800	 0.959279	 19.333720	 0.113613	-0.084258	 45.160960	 0.143255	 0.016359	 71.885770	-17.904980	-4.517675	 47.868970	 0.000000	 0.000000	 11.840350	 0.011079	 0.106848	 72.578270	-7.037383	-1.718975	 21.468500	 0.000004	 0.000001	 41.671130	 0.000004	 0.000000	 72.152910	-14.776330	-3.682388	 43.516780	 0.000000	 0.000000	 40.321990	-0.044259	-0.120543	-52.806150	 47.586510	 57.634720	 7.246095	-2.710398	-7.175817	-19.830330	 25.844790	 18.812980	-0.000001	-6.013633	-0.000022	 0.000001	 2.614231	-0.000018	 0.000000	-3.498952	 0.000000	 0.000000	 0.248285	 0.000000	 0.000008	-6.013632	 0.000023	-0.000009	 2.614225	-0.000003	 0.000000	-3.498953	 0.000000	 0.000000	 0.248285	 0.000000
 0.000000	 1.032722	 0.003576	 0.000000	 0.000000	 0.000000	 0.055128	 6.491717	 3.319453	-3.543543	 6.374964	 0.071134	-0.000021	-12.397510	-0.000080	 2.981600	 11.620690	-0.396620	 5.394138	-0.455179	-1.216592	-1.701261	 3.587029	 23.098790	 1.701262	 3.587039	-20.847600	 15.043110	-5.288594	 9.335845	-81.369680	 25.729100	-4.251632	-9.986031	 15.519160	-112.189400	 63.614430	 23.370420	-42.366030	-79.506150	-17.554670	 3.197659	-55.191090	 0.000000	 0.000000	-34.651920	 0.000000	 0.000000	-79.372420	-19.683500	 3.616441	-47.102190	 0.000000	 0.000000	-90.000000	 0.000000	 0.000000	-79.372420	-19.683500	 3.616441	-56.576120	 0.000000	 0.000000	-79.759070	 0.000000	 0.000000	-79.372420	-19.683500	 3.616441	-66.340510	 0.000000	 0.000000	-76.889710	 0.000000	 0.000000	-9.517117	 33.023920	-34.769790	 141.448700	 75.813450	-154.204900	 4.590282	-0.705078	-0.717109	 9.502733	-5.151468	-12.374780	 61.000110	 36.127940	 17.252520	-3.940726	 0.989495	 113.135500	-75.445490	 55.207130	 49.095120	 72.656920	 4.455800	 0.959279	 19.333720	 0.113613	-0.084258	 45.160960	 0.143255	 0.016359	 71.885770	-17.904980	-4.517675	 47.868970	 0.000000	 0.000000	 11.840350	 0.011079	 0.106848	 72.578270	-7.037383	-1.718975	 21.468500	 0.000004	 0.000001	 41.671130	 0.000004	 0.000000	 72.152910	-14.776330	-3.682388	 43.516780	 0.000000	 0.000000	 40.321990	-0.044259	-0.120543	-52.806150	 47.586510	 57.634720	 7.246095	-2.710398	-7.175817	-19.830330	 25.844790	 18.812980	-0.000001	-6.013633	-0.000022	 0.000001	 2.614230	-0.000018	 0.000000	-3.498952	 0.000000	 0.000000	 0.248285	 0.000000	 0.000008	-6.013632	 0.000023	-0.000009	 2.614225	-0.000003	 0.000000	-3.498953	 0.000000	 0.000000	 0.248285	 0.000000
 0.000000	 1.032722	 0.003576	 0.000000	 0.000000	 0.000000	 0.055128	 6.491717	 3.319453	-3.543543	 6.374964	 0.071134	-0.000021	-12.397510	-0.000081	 2.981600	 11.620690	-0.396620	 5.394138	-0.455181	-1.216592	-1.701261	 3.587029	 23.098790	 1.701262	 3.587039	-20.847600	 15.043110	-5.288594	 9.335845	-81.369680	 25.729100	-4.251632	-9.986025	 15.519160	-112.189400	 63.614420	 23.370420	-42.366020	-79.506150	-17.554670	 3.197659	-55.191090	 0.000000	 0.000000	-34.651920	 0.000000	 0.000000	-79.372420	-19.683500	 3.616441	-47.102190	 0.000000	 0.000000	-90.000000	 0.000000	 0.000000	-79.372420	-19.683500	 3.616441	-56.576120	 0.000000	 0.000000	-79.759070	 0.000000	 0.000000	-79.372420	-19.683500	 3.616441	-66.340510	 0.000000	 0.000000	-76.889710	 0.000000	 0.000000	-9.517117	 33.023920	-34.769790	 141.448700	 75.813450	-154.204900	 4.590282	-0.705078	-0.717109	 9.502733	-5.151468	-12.374780	 61.000080	 36.127940	 17.252540	-3.940728	 0.989480	 113.135500	-75.445470	 55.207150	 49.095110	 72.656920	 4.455800	 0.959279	 19.333720	 0.113613	-0.084258	 45.160960	 0.143255	 0.016359	 71.885770	-17.904980	-4.517675	 47.868970	 0.000000	 0.000000	 11.840350	 0.011079	 0.106848	 72.578270	-7.037383	-1.718975	 21.468500	 0.000004	 0.000001	 41.671130	 0.000004	 0.000000	 72.152910	-14.776330	-3.682388	 43.516780	 0.000000	 0.000000	 40.321990	-0.044259	-0.120543	-52.806150	 47.586510	 57.634720	 7.246095	-2.710398	-7.175817	-19.830330	 25.844790	 18.812980	-0.000001	-6.013633	-0.000022	 0.000001	 2.614230	-0.000018	 0.000000	-3.498952	 0.000000	 0.000000	 0.248285	 0.000000	 0.000008	-6.013632	 0.000023	-0.000009	 2.614225	-0.000003	 0.000000	-3.498953	 0.000000	 0.000000	 0.248285	 0.000000
 0.000000	 1.032722	 0.003576	 0.000000	 0.000000	 0.000000	 0.055128	 6.491717	 3.319453	-3.543543	 6.374964	 0.071134	-0.000021	-12.397510	-0.000081	 2.981599	 11.620690	-0.396620	 5.394142	-0.455181	-1.216591	-1.701261	 3.587029	 23.098790	 1.701262	 3.587039	-20.847600	 15.043110	-5.288594	 9.335845	-81.369680	 25.729100	-4.251635	-9.986010	 15.519160	-112.189400	 63.614420	 23.370420	-42.366000	-79.506150	-17.554670	 3.197659	-55.191090	 0.000000	 0.000000	-34.651920	 0.000000	 0.000000	-79.372420	-19.683500	 3.616441	-47.102190	 0.000000	 0.000000	-90.000000	 0.000000	 0.000000	-79.372420	-19.683500	 3.616441	-56.576120	 0.000000	 0.000000	-79.759070	 0.000000	 0.000000	-79.372420	-19.683500	 3.616441	-66.340510	 0.000000	 0.000000	-76.889710	 0.000000	 0.000000	-9.517117	 33.023920	-34.769790	 141.448700	 75.813450	-154.204900	 4.590282	-0.705078	-0.717109	 9.502733	-5.151468	-12.374780	 61.000070	 36.127950	 17.252550	-3.940718	 0.989464	 113.135500	-75.445430	 55.207150	 49.095080	 72.656920	 4.455800	 0.959279	 19.333720	 0.113613	-0.084258	 45.160960	 0.143255	 0.016359	 71.885770	-17.904980	-4.517675	 47.868970	 0.000000	 0.000000	 11.840350	 0.011079	 0.106848	 72.578270	-7.037383	-1.718975	 21.468500	 0.000004	 0.000001	 41.671130	 0.000004	 0.000000	 72.152910	-14.776330	-3.682388	 43.516780	 0.000000	 0.000000	 40.321990	-0.044259	-0.120543	-52.806150	 47.586510	 57.634720	 7.246095	-2.710398	-7.175817	-19.830330	 25.844790	 18.812980	-0.000001	-6.013633	-0.000022	 0.000001	 2.614230	-0.000018	 0.000000	-3.498952	 0.000000	 0.000000	 0.248285	 0.000000	 0.000008	-6.013632	 0.000023	-0.000009	 2.614225	-0.000003	 0.000000	-3.498953	 0.000000	 0.000000	 0.248285	 0.000000
 0.000000	 1.032722	 0.003576	 0.000000	 0.000000	 0.000000	 0.055128	 6.491717	 3.319453	-3.543543	 6.374964	 0.071134	-0.000021	-12.397510	-0.000081	 2.981599	 11.620690	-0.396620	 5.394144	-0.455184	-1.216591	-1.701261	 3.587029	 23.098790	 1.701262	 3.587039	-20.847600	 15.043110	-5.288594	 9.335845	-81.369680	 25.729100	-4.251636	-9.986013	 15.519170	-112.189400	 63.614440	 23.370410	-42.366000	-79.506150	-17.554670	 3.197659	-55.191090	 0.000000	 0.000000	-34.651920	 0.000000	 0.000000	-79.372420	-19.683500	 3.616441	-47.102190	 0.000000	 0.000000	-90.000000	 0.000000	 0.000000	-79.372420	-19.683500	 3.616441	-56.576120	 0.000000	 0.000000	-79.759070	 0.000000	 0.000000	-79.372420	-19.683500	 3.616441	-66.340510	 0.000000	 0.000000	-76.889710	 0.000000	 0.000000	-9.517117	 33.023920	-34.769790	 141.448700	 75.813450	-154.204900	 4.590282	-0.705078	-0.717109	 9.502733	-5.151468	-12.374780	 61.000060	 36.127940	 17.252560	-3.940709	 0.989445	 113.135500	-75.445410	 55.207160	 49.095050	 72.656920	 4.455800	 0.959279	 19.333720	 0.113613	-0.084258	 45.160960	 0.143255	 0.016359	 71.885770	-17.904980	-4.517675	 47.868970	 0.000000	 0.000000	 11.840350	 0.011079	 0.106848	 72.578270	-7.037383	-1.718975	 21.468500	 0.000004	 0.000001	 41.671130	 0.000004	 0.000000	 72.152910	-14.776330	-3.682388	 43.516780	 0.000000	 0.000000	 40.321990	-0.044259	-0.120543	-52.806150	 47.586510	 57.634720	 7.246095	-2.710398	-7.175817	-19.830330	 25.844790	 18.812980	-0.000001	-6.013633	-0.000022	 0.000001	 2.614230	-0.000018	 0.000000	-3.498952	 0.000000	 0.000000	 0.248285	 0.000000	 0.000008	-6.013632	 0.000023	-0.000009	 2.614225	-0.000003	 0.000000	-3.498953	 0.000000	 0.000000	 0.248285	 0.000000
 0.000000	 1.032722	 0.003576	 0.000000	 0.000000	 0.000000	 0.055128	 6.491717	 3.319453	-3.543543	 6.374964	 0.071134	-0.000021	-12.397510	-0.000081	 2.981599	 11.620690	-0.396620	 5.394147	-0.455185	-1.216591	-1.701261	 3.587029	 23.098790	 1.701262	 3.587039	-20.847600	 15.043110	-5.288594	 9.335845	-81.369680	 25.729100	-4.251636	-9.986006	 15.519170	-112.189400	 63.614440	 23.370410	-42.365980	-79.506150	-17.554670	 3.197659	-55.191090	 0.000000	 0.000000	-34.651920	 0.000000	 0.000000	-79.372420	-19.683500	 3.616441	-47.102190	 0.000000	 0.000000	-90.000000	 0.000000	 0.000000	-79.372420	-19.683500	 3.616441	-56.576120	 0.000000	 0.000000	-79.759070	 0.000000	 0.000000	-79.372420	-19.683500	 3.616441	-66.340510	 0.000000	 0.000000	-76.889710	 0.000000	 0.000000	-9.517117	 33.023920	-34.769790	 141.448700	 75.813450	-154.204900	 4.590282	-0.705078	-0.717109	 9.502733	-5.151468	-12.374780	 61.000040	 36.127940	 17.252570	-3.940701	 0.989435	 113.135500	-75.445400	 55.207170	 49.095040	 72.656920	 4.455800	 0.959279	 19.333720	 0.113613	-0.084258	 45.160960	 0.143255	 0.016359	 71.885770	-17.904980	-4.517675	 47.868970	 0.000000	 0.000000	 11.840350	 0.011079	 0.106848	 72.578270	-7.037383	-1.718975	 21.468500	 0.000004	 0.000001	 41.671130	 0.000004	 0.000000	 72.152910	-14.776330	-3.682388	 43.516780	 0.000000	 0.000000	 40.321990	-0.044259	-0.120543	-52.806150	 47.586510	 57.634720	 7.246095	-2.710398	-7.175817	-19.830330	 25.844790	 18.812980	-0.000001	-6.013633	-0.000022	 0.000001	 2.614229	-0.000018	 0.000000	-3.498952	 0.000000	 0.000000	 0.248285	 0.000000	 0.000008	-6.013632	 0.000023	-0.000009	 2.614225	-0.000003	 0.000000	-3.498953	 0.000000	 0.000000	 0.248285	 0.000000
 0.000000	 1.032722	 0.003576	 0.000000	 0.000000	 0.000000	 0.055128	 6.491717	 3.319453	-3.543543	 6.374964	 0.071134	-0.000022	-12.397510	-0.000081	 2.981599	 11.620700	-0.396620	 5.394149	-0.455187	-1.216590	-1.701261	 3.587029	 23.098790	 1.701262	 3.587039	-20.847600	 15.043110	-5.288594	 9.335845	-81.369690	 25.729110	-4.251633	-9.986000	 15.519170	-112.189400	 63.614460	 23.370400	-42.365990	-79.506150	-17.554670	 3.197659	-55.191090	 0.000000	 0.000000	-34.651920	 0.000000	 0.000000	-79.372420	-19.683500	 3.616441	-47.102190	 0.000000	 0.000000	-90.000000	 0.000000	 0.000000	-79.372420	-19.683500	 3.616441	-56.576120	 0.000000	 0.000000	-79.759070	 0.000000	 0.000000	-79.372420	-19.683500	 3.616441	-66.340510	 0.000000	 0.000000	-76.889710	 0.000000	 0.000000	-9.517117	 33.023920	-34.769790	 141.448700	 75.813450	-154.204900	 4.590282	-0.705078	-0.717109	 9.502733	-5.151468	-12.374780	 61.000030	 36.127940	 17.252580	-3.940693	 0.989424	 113.135500	-75.445380	 55.207160	 49.095020	 72.656920	 4.455800	 0.959279	 19.333720	 0.113613	-0.084258	 45.160960	 0.143255	 0.016359	 71.885770	-17.904980	-4.517675	 47.868970	 0.000000	 0.000000	 11.840350	 0.011079	 0.106848	 72.578270	-7.037383	-1.718975	 21.468500	 0.000004	 0.000001	 41.671130	 0.000004	 0.000000	 72.152910	-14.776330	-3.682388	 43.516780	 0.000000	 0.000000	 40.321990	-0.044259	-0.120543	-52.806150	 47.586510	 57.634720	 7.246095	-2.710398	-7.175817	-19.830330	 25.844790	 18.812980	-0.000001	-6.013633	-0.000022	 0.000001	 2.614229	-0.000018	 0.000000	-3.498952	 0.000000	 0.000000	 0.248285	 0.000000	 0.000008	-6.013632	 0.000023	-0.000009	 2.614225	-0.000003	 0.000000	-3.498953	 0.000000	 0.000000	 0.248285	 0.000000
 0.000000	 1.032722	 0.003576	 0.000000	 0.000000	 0.000000	 0.055128	 6.491717	 3.319453	-3.543543	 6.374964	 0.071134	-0.000022	-12.397510	-0.000081	 2.981598	 11.620700	-0.396621	 5.394152	-0.455190	-1.216589	-1.701261	 3.587029	 23.098790	 1.701262	 3.587039	-20.847600	 15.043110	-5.288594	 9.335845	-81.369690	 25.729110	-4.251633	-9.985991	 15.519180	-112.189400	 63.614500	 23.370400	-42.365990	-79.506150	-17.554670	 3.197659	-55.191090	 0.000000	 0.000000	-34.651920	 0.000000	 0.000000	-79.372420	-19.683500	 3.616441	-47.102190	 0.000000	 0.000000	-90.000000	 0.000000	 0.000000	-79.372420	-19.683500	 3.616441	-56.576120	 0.000000	 0.000000	-79.759070	 0.000000	 0.000000	-79.372420	-19.683500	 3.616441	-66.340510	 0.000000	 0.000000	-76.889710	 0.000000	 0.000000	-9.517117	 33.023920	-34.769790	 141.448700	 75.813450	-154.204900	 4.590282	-0.705078	-0.717109	 9.502733	-5.151468	-12.374780	 61.000020	 36.127940	 17.252590	-3.940692	 0.989411	 113.135500	-75.445320	 55.207160	 49.094970	 72.656920	 4.455800	 0.959279	 19.333720	 0.113613	-0.084258	 45.160960	 0.143255	 0.016359	 71.885770	-17.904980	-4.517675	 47.868970	 0.000000	 0.000000	 11.840350	 0.011079	 0.106848	 72.578270	-7.037383	-1.718975	 21.468500	 0.000004	 0.000001	 41.671130	 0.000004	 0.000000	 72.152910	-14.776330	-3.682388	 43.516780	 0.000000	 0.000000	 40.321990	-0.044259	-0.120543	-52.806150	 47.586510	 57.634720	 7.246095	-2.710398	-7.175817	-19.830330	 25.844790	 18.812980	-0.000001	-6.013633	-0.000022	 0.000001	 2.614229	-0.000018	 0.000000	-3.498952	 0.000000	 0.000000	 0.248285	 0.000000	 0.000008	-6.013632	 0.000023	-0.000009	 2.614225	-0.000003	 0.000000	-3.498953	 0.000000	 0.000000	 0.248285	 0.000000
 0.000000	 1.032722	 0.003576	 0.000000	 0.000000	 0.000000	 0.055128	 6.491717	 3.319453	-3.543543	 6.374964	 0.071134	-0.000022	-12.397510	-0.000081	 2.981598	 11.620700	-0.396621	 5.394154	-0.455195	-1.216589	-1.701261	 3.587029	 23.098790	 1.701262	 3.587039	-20.847600	 15.043110	-5.288594	 9.335845	-81.369690	 25.729110	-4.251631	-9.985992	 15.519190	-112.189400	 63.614510	 23.370420	-42.365990	-79.506150	-17.554670	 3.197659	-55.191090	 0.000000	 0.000000	-34.651920	 0.000000	 0.000000	-79.372420	-19.683500	 3.616441	-47.102190	 0.000000	 0.000000	-90.000000	 0.000000	 0.000000	-79.372420	-19.683500	 3.616441	-56.576120	 0.000000	 0.000000	-79.759070	 0.000000	 0.000000	-79.372420	-19.683500	 3.616441	-66.340510	 0.000000	 0.000000	-76.889710	 0.000000	 0.000000	-9.517117	 33.023920	-34.769790	 141.448700	 75.813450	-154.204900	 4.590282	-0.705078	-0.717109	 9.502733	-5.151468	-12.374780	 61.000010	 36.127940	 17.252600	-3.940691	 0.989408	 113.135500	-75.445300	 55.207160	 49.094960	 72.656920	 4.455800	 0.959279	 19.333720	 0.113613	-0.084258	 45.160960	 0.143255	 0.016359	 71.885770	-17.904980	-4.517675	 47.868970	 0.000000	 0.000000	 11.840350	 0.011079	 0.106848	 72.578270	-7.037383	-1.718975	 21.468500	 0.000004	 0.000001	 41.671130	 0.000004	 0.000000	 72.152910	-14.776330	-3.682388	 43.516780	 0.000000	 0.000000	 40.321990	-0.044259	-0.120543	-52.806150	 47.586510	 57.634720	 7.246095	-2.710398	-7.175817	-19.830330	 25.844790	 18.812980	-0.000001	-6.013633	-0.000022	 0.000001	 2.614229	-0.000018	 0.000000	-3.498952	 0.000000	 0.000000	 0.248285	 0.000000	 0.000008	-6.013632	 0.000023	-0.000009	 2.614225	-0.000003	 0.000000	-3.498953	 0.000000	 0.000000	 0.248285	 0.000000
